QIANFAN-73              
1 63159U 25046A   25223.58370001  .00000163  00000+0  23332-3 0  9994
2 63159  88.9864 332.7184 0016929 118.5455 241.7403 13.50961079 30783
QIANFAN-74              
1 63160U 25046B   25223.56724636  .00000176  00000+0  25480-3 0  9991
2 63160  88.9864 332.6086 0001966 105.7257 254.4111 13.50965948 30841
QIANFAN-75              
1 63161U 25046C   25223.55495456  .00000180  00000+0  26033-3 0  9996
2 63161  88.9865 332.8416 0018074 121.5729 238.7189 13.50962196 30718
QIANFAN-76              
1 63162U 25046D   25223.55069163  .00000173  00000+0  24979-3 0  9998
2 63162  88.9864 332.8232 0015636 121.9396 238.3278 13.50958531 30723
QIANFAN-77              
1 63163U 25046E   25223.62028338  .00000376  00000+0  26456-3 0  9993
2 63163  88.9862 331.8327 0016985 105.0428 255.2629 13.96012749 31274
QIANFAN-78              
1 63164U 25046F   25223.59195439  .00000183  00000+0  26497-3 0  9998
2 63164  88.9863 332.6844 0016988 124.0477 236.2290 13.50961835 30807
QIANFAN-79              
1 63165U 25046G   25223.62065877  .00000174  00000+0  25006-3 0  9990
2 63165  88.9867 332.7841 0016683 122.4452 237.8315 13.50963988 30757
QIANFAN-80              
1 63166U 25046H   25223.56316501  .00000176  00000+0  25390-3 0  9995
2 63166  88.9865 332.5004 0015634 126.2659 233.9939 13.50964091 30903
